GECAM-A                 
1 47234U 20094A   26058.13989985  .00002379  00000+0  17329-3 0  9993
2 47234  28.9961  20.3521 0010700 243.6219 116.3280 15.00334340285149
STARLINK-4367           
1 53229U 22084AS  26068.75390808 -.00000391  00000+0 -22863-4 0  9998
2 53229  97.6027 131.2595 0000924  95.5040 264.6292 15.05648767199399
